start=new Date('2022-06-20T00:00:00.000Z').valueOf();
sats=[{"REV_AT_EPOCH":"7274","OBJECT_TYPE":"PAYLOAD","EPOCH":"2022-06-19T13:44:17.836224","PERIAPSIS":"546.138","NORAD_CAT_ID":"47772","APOAPSIS":"548.330","OBJECT_ID":"2021-017BC","SEMIMAJOR_AXIS":"6925.369","MEAN_MOTION":"15.06393281","SITE":"AFETR","EPHEMERIS_TYPE":"0","RCS_SIZE":"LARGE","TLE_LINE2":"2 47772  53.0551 202.9373 0001583  59.7604 300.3542 15.06393281 72747","CENTER_NAME":"EARTH","MEAN_ANOMALY":"300.3542","MEAN_MOTION_DOT":"0.00000274","REF_FRAME":"TEME","GP_ID":"206447672","BSTAR":"0.00003727800000","INCLINATION":"53.0551","DECAY_DATE":null,"PERIOD":"95.593","MEAN_ELEMENT_THEORY":"SGP4","TLE_LINE1":"1 47772U 21017BC  22170.57242866  .00000274  00000-0  37278-4 0  9994","ARG_OF_PERICENTER":"59.7604","FILE":"3497669","ELEMENT_SET_NO":"999","RA_OF_ASC_NODE":"202.9373","COUNTRY_CODE":"US","TIME_SYSTEM":"UTC","OBJECT_NAME":"STARLINK-2195","LAUNCH_DATE":"2021-03-04","ECCENTRICITY":"0.00015830","MEAN_MOTION_DDOT":"0.0000000000000","CLASSIFICATION_TYPE":"U"},{"RA_OF_ASC_NODE":"204.1483","ELEMENT_SET_NO":"999","FILE":"3497010","ARG_OF_PERICENTER":"54.6643","TLE_LINE1":"1 47773U 21017BD  22170.30335298  .00000292  00000-0  38493-4 0  9998","MEAN_ELEMENT_THEORY":"SGP4","MEAN_MOTION_DDOT":"0.0000000000000","CLASSIFICATION_TYPE":"U","LAUNCH_DATE":"2021-03-04","ECCENTRICITY":"0.00017540","TIME_SYSTEM":"UTC","OBJECT_NAME":"STARLINK-2196","COUNTRY_CODE":"US","MEAN_MOTION":"15.06401501","SEMIMAJOR_AXIS":"6925.344","OBJECT_ID":"2021-017BD","SITE":"AFETR","PERIAPSIS":"545.994","NORAD_CAT_ID":"47773","APOAPSIS":"548.424","OBJECT_TYPE":"PAYLOAD","EPOCH":"2022-06-19T07:16:49.697472","REV_AT_EPOCH":"7269","DECAY_DATE":null,"PERIOD":"95.592","INCLINATION":"53.0535","BSTAR":"0.00003849300000","REF_FRAME":"TEME","GP_ID":"206415113","TLE_LINE2":"2 47773  53.0535 204.1483 0001754  54.6643 305.4510 15.06401501 72693","CENTER_NAME":"EARTH","RCS_SIZE":"LARGE","EPHEMERIS_TYPE":"0","MEAN_MOTION_DOT":"0.00000292","MEAN_ANOMALY":"305.4510"},{"REV_AT_EPOCH":"7279","OBJECT_TYPE":"PAYLOAD","EPOCH":"2022-06-19T21:31:22.583424","PERIAPSIS":"545.850","APOAPSIS":"548.576","NORAD_CAT_ID":"47774","OBJECT_ID":"2021-017BE","SEMIMAJOR_AXIS":"6925.348","MEAN_MOTION":"15.06400170","SITE":"AFETR","RCS_SIZE":"LARGE","EPHEMERIS_TYPE":"0","CENTER_NAME":"EARTH","TLE_LINE2":"2 47774  53.0548 201.4891 0001968  49.0939 311.0220 15.06400170 72797","MEAN_ANOMALY":"311.0220","MEAN_MOTION_DOT":"-0.00000983","REF_FRAME":"TEME","GP_ID":"206446672","BSTAR":"-0.00004712000000","INCLINATION":"53.0548","DECAY_DATE":null,"PERIOD":"95.592","MEAN_ELEMENT_THEORY":"SGP4","ARG_OF_PERICENTER":"49.0939","TLE_LINE1":"1 47774U 21017BE  22170.89678916 -.00000983  00000-0 -47120-4 0  9996","FILE":"3497669","ELEMENT_SET_NO":"999","RA_OF_ASC_NODE":"201.4891","COUNTRY_CODE":"US","TIME_SYSTEM":"UTC","OBJECT_NAME":"STARLINK-2197","LAUNCH_DATE":"2021-03-04","ECCENTRICITY":"0.00019680","MEAN_MOTION_DDOT":"0.0000000000000","CLASSIFICATION_TYPE":"U"},{"PERIOD":"95.592","DECAY_DATE":null,"INCLINATION":"53.0541","GP_ID":"206446921","REF_FRAME":"TEME","BSTAR":"-0.00003140800000","MEAN_MOTION_DOT":"-0.00000749","MEAN_ANOMALY":"295.7276","EPHEMERIS_TYPE":"0","RCS_SIZE":"LARGE","TLE_LINE2":"2 47775  53.0541 202.0222 0001577  64.3876 295.7276 15.06401588 72829","CENTER_NAME":"EARTH","SITE":"AFETR","OBJECT_ID":"2021-017BF","SEMIMAJOR_AXIS":"6925.344","MEAN_MOTION":"15.06401588","NORAD_CAT_ID":"47775","APOAPSIS":"548.301","PERIAPSIS":"546.117","EPOCH":"2022-06-19T18:36:13.318560","OBJECT_TYPE":"PAYLOAD","REV_AT_EPOCH":"7282","CLASSIFICATION_TYPE":"U","MEAN_MOTION_DDOT":"0.0000000000000","LAUNCH_DATE":"2021-03-04","ECCENTRICITY":"0.00015770","OBJECT_NAME":"STARLINK-2198","TIME_SYSTEM":"UTC","COUNTRY_CODE":"US","RA_OF_ASC_NODE":"202.0222","ELEMENT_SET_NO":"999","ARG_OF_PERICENTER":"64.3876","TLE_LINE1":"1 47775U 21017BF  22170.77515415 -.00000749  00000-0 -31408-4 0  9990","FILE":"3497669","MEAN_ELEMENT_THEORY":"SGP4"},{"RA_OF_ASC_NODE":"193.3946","ELEMENT_SET_NO":"999","TLE_LINE1":"1 47776U 21017BG  22170.47014165 -.00000183  00000-0  65962-5 0  9998","ARG_OF_PERICENTER":"53.3967","FILE":"3497010","MEAN_ELEMENT_THEORY":"SGP4","CLASSIFICATION_TYPE":"U","MEAN_MOTION_DDOT":"0.0000000000000","ECCENTRICITY":"0.00018090","LAUNCH_DATE":"2021-03-04","OBJECT_NAME":"STARLINK-2209","TIME_SYSTEM":"UTC","COUNTRY_CODE":"US","SITE":"AFETR","OBJECT_ID":"2021-017BG","SEMIMAJOR_AXIS":"6925.344","MEAN_MOTION":"15.06401544","NORAD_CAT_ID":"47776","APOAPSIS":"548.462","PERIAPSIS":"545.956","EPOCH":"2022-06-19T11:17:00.238560","OBJECT_TYPE":"PAYLOAD","REV_AT_EPOCH":"7288","PERIOD":"95.592","DECAY_DATE":null,"INCLINATION":"53.0534","GP_ID":"206415364","REF_FRAME":"TEME","BSTAR":"0.00000659620000","MEAN_MOTION_DOT":"-0.00000183","MEAN_ANOMALY":"306.7188","RCS_SIZE":"LARGE","EPHEMERIS_TYPE":"0","CENTER_NAME":"EARTH","TLE_LINE2":"2 47776  53.0534 193.3946 0001809  53.3967 306.7188 15.06401544 72887"},{"SITE":"AFETR","MEAN_MOTION":"15.06402939","OBJECT_ID":"2021-017BH","SEMIMAJOR_AXIS":"6925.340","NORAD_CAT_ID":"47777","APOAPSIS":"548.486","PERIAPSIS":"545.923","EPOCH":"2022-06-19T11:22:18.727104","OBJECT_TYPE":"PAYLOAD","REV_AT_EPOCH":"7288","PERIOD":"95.592","DECAY_DATE":null,"INCLINATION":"53.0544","BSTAR":"0.00014566000000","REF_FRAME":"TEME","GP_ID":"206415614","MEAN_MOTION_DOT":"0.00001889","MEAN_ANOMALY":"316.3545","CENTER_NAME":"EARTH","TLE_LINE2":"2 47777  53.0544 193.3896 0001850  43.7590 316.3545 15.06402939 72887","RCS_SIZE":"LARGE","EPHEMERIS_TYPE":"0","RA_OF_ASC_NODE":"193.3896","ELEMENT_SET_NO":"999","FILE":"3497010","ARG_OF_PERICENTER":"43.7590","TLE_LINE1":"1 47777U 21017BH  22170.47382786  .00001889  00000-0  14566-3 0  9991","MEAN_ELEMENT_THEORY":"SGP4","CLASSIFICATION_TYPE":"U","MEAN_MOTION_DDOT":"0.0000000000000","LAUNCH_DATE":"2021-03-04","ECCENTRICITY":"0.00018500","OBJECT_NAME":"STARLINK-2210","TIME_SYSTEM":"UTC","COUNTRY_CODE":"US"},{"EPOCH":"2022-06-19T18:32:14.117568","OBJECT_TYPE":"PAYLOAD","REV_AT_EPOCH":"7292","SEMIMAJOR_AXIS":"6925.346","OBJECT_ID":"2021-017BJ","MEAN_MOTION":"15.06400973","SITE":"AFETR","PERIAPSIS":"546.121","NORAD_CAT_ID":"47778","APOAPSIS":"548.300","REF_FRAME":"TEME","GP_ID":"206446173","BSTAR":"0.00012613000000","EPHEMERIS_TYPE":"0","RCS_SIZE":"LARGE","TLE_LINE2":"2 47778  53.0538 192.0308 0001573  60.2105 299.9040 15.06400973 72920","CENTER_NAME":"EARTH","MEAN_ANOMALY":"299.9040","MEAN_MOTION_DOT":"0.00001598","DECAY_DATE":null,"PERIOD":"95.592","INCLINATION":"53.0538","ARG_OF_PERICENTER":"60.2105","TLE_LINE1":"1 47778U 21017BJ  22170.77238562  .00001598  00000-0  12613-3 0  9995","FILE":"3497669","MEAN_ELEMENT_THEORY":"SGP4","RA_OF_ASC_NODE":"192.0308","ELEMENT_SET_NO":"999","TIME_SYSTEM":"UTC","OBJECT_NAME":"STARLINK-2211","COUNTRY_CODE":"US","MEAN_MOTION_DDOT":"0.0000000000000","CLASSIFICATION_TYPE":"U","LAUNCH_DATE":"2021-03-04","ECCENTRICITY":"0.00015730"},{"MEAN_MOTION_DDOT":"0.0000000000000","CLASSIFICATION_TYPE":"U","LAUNCH_DATE":"2021-03-04","ECCENTRICITY":"0.00014040","TIME_SYSTEM":"UTC","OBJECT_NAME":"STARLINK-2212","COUNTRY_CODE":"US","RA_OF_ASC_NODE":"181.1249","ELEMENT_SET_NO":"999","FILE":"3497669","ARG_OF_PERICENTER":"65.3793","TLE_LINE1":"1 47779U 21017BK  22170.72047771  .00001695  00000-0  11335-3 0  9999","MEAN_ELEMENT_THEORY":"SGP4","DECAY_DATE":null,"PERIOD":"95.210","INCLINATION":"53.0540","BSTAR":"0.00011335000000","REF_FRAME":"TEME","GP_ID":"206446421","TLE_LINE2":"2 47779  53.0540 181.1249 0001404  65.3793 294.7345 15.12449897 73083","CENTER_NAME":"EARTH","RCS_SIZE":"LARGE","EPHEMERIS_TYPE":"0","MEAN_MOTION_DOT":"0.00001695","MEAN_ANOMALY":"294.7345","MEAN_MOTION":"15.12449897","OBJECT_ID":"2021-017BK","SEMIMAJOR_AXIS":"6906.868","SITE":"AFETR","PERIAPSIS":"527.764","APOAPSIS":"529.703","NORAD_CAT_ID":"47779","OBJECT_TYPE":"PAYLOAD","EPOCH":"2022-06-19T17:17:29.274144","REV_AT_EPOCH":"7308"},{"MEAN_ANOMALY":"313.9322","MEAN_MOTION_DOT":"-0.00000244","TLE_LINE2":"2 47780  53.0526 191.6141 0001900  46.1824 313.9322 15.06398395 72974","CENTER_NAME":"EARTH","EPHEMERIS_TYPE":"0","RCS_SIZE":"LARGE","BSTAR":"0.00000250590000","GP_ID":"206447673","REF_FRAME":"TEME","INCLINATION":"53.0526","PERIOD":"95.592","DECAY_DATE":null,"REV_AT_EPOCH":"7297","EPOCH":"2022-06-19T20:44:55.950144","OBJECT_TYPE":"PAYLOAD","APOAPSIS":"548.534","NORAD_CAT_ID":"47780","PERIAPSIS":"545.903","SITE":"AFETR","MEAN_MOTION":"15.06398395","OBJECT_ID":"2021-017BL","SEMIMAJOR_AXIS":"6925.353","COUNTRY_CODE":"US","OBJECT_NAME":"STARLINK-2213","TIME_SYSTEM":"UTC","ECCENTRICITY":"0.00019000","LAUNCH_DATE":"2021-03-04","CLASSIFICATION_TYPE":"U","MEAN_MOTION_DDOT":"0.0000000000000","MEAN_ELEMENT_THEORY":"SGP4","FILE":"3497669","TLE_LINE1":"1 47780U 21017BL  22170.86453646 -.00000244  00000-0  25059-5 0  9998","ARG_OF_PERICENTER":"46.1824","ELEMENT_SET_NO":"999","RA_OF_ASC_NODE":"191.6141"},{"OBJECT_TYPE":"PAYLOAD","EPOCH":"2022-06-19T19:57:11.260512","REV_AT_EPOCH":"7292","OBJECT_ID":"2021-017BM","SEMIMAJOR_AXIS":"6925.404","MEAN_MOTION":"15.06382006","SITE":"AFETR","PERIAPSIS":"546.091","NORAD_CAT_ID":"47781","APOAPSIS":"548.446","GP_ID":"206447920","REF_FRAME":"TEME","BSTAR":"0.00011349000000","EPHEMERIS_TYPE":"0","RCS_SIZE":"LARGE","CENTER_NAME":"EARTH","TLE_LINE2":"2 47781  53.0524 191.7661 0001700  64.1504 295.9660 15.06382006 72925","MEAN_ANOMALY":"295.9660","MEAN_MOTION_DOT":"0.00001408","DECAY_DATE":null,"PERIOD":"95.593","INCLINATION":"53.0524","TLE_LINE1":"1 47781U 21017BM  22170.83138033  .00001408  00000-0  11349-3 0  9993","ARG_OF_PERICENTER":"64.1504","FILE":"3497669","MEAN_ELEMENT_THEORY":"SGP4","RA_OF_ASC_NODE":"191.7661","ELEMENT_SET_NO":"999","TIME_SYSTEM":"UTC","OBJECT_NAME":"STARLINK-2223","COUNTRY_CODE":"US","MEAN_MOTION_DDOT":"0.0000000000000","CLASSIFICATION_TYPE":"U","LAUNCH_DATE":"2021-03-04","ECCENTRICITY":"0.00017000"}];
